{
  "type": "FeatureCollection",
  "features": [
    {
      "type": "Feature",
      "properties": {
        "class": "oil_spill"
      },
      "geometry": {
        "type": "Polygon",
        "coordinates": [
          [
            [
              -92.07870680453193,
              19.692585223642464
            ],
            [
              -92.07870680453193,
              19.691686908358342
            ],
            [
              -92.07816781536147,
              19.691686908358342
            ],
            [
              -92.07816781536147,
              19.692225897528814
            ],
            [
              -92.07762882619099,
              19.692225897528814
            ],
            [
              -92.07762882619099,
              19.692585223642464
            ],
            [
              -92.07870680453193,
              19.692585223642464
            ]
          ]
        ]
      }
    },
    {
      "type": "Feature",
      "properties": {
        "class": "oil_spill"
      },
      "geometry": {
        "type": "Polygon",
        "coordinates": [
          [
            [
              -92.08032377204336,
              19.691686908358342
            ],
            [
              -92.08032377204336,
              19.691327582244696
            ],
            [
              -92.08086276121382,
              19.691327582244696
            ],
            [
              -92.08086276121382,
              19.690968256131047
            ],
            [
              -92.08140175038429,
              19.690968256131047
            ],
            [
              -92.08140175038429,
              19.69006994084693
            ],
            [
              -92.08086276121382,
              19.69006994084693
            ],
            [
              -92.08086276121382,
              19.68971061473328
            ],
            [
              -92.08032377204336,
              19.68971061473328
            ],
            [
              -92.08032377204336,
              19.69006994084693
            ],
            [
              -92.07870680453193,
              19.69006994084693
            ],
            [
              -92.07870680453193,
              19.691327582244696
            ],
            [
              -92.07924579370241,
              19.691327582244696
            ],
            [
              -92.07924579370241,
              19.691686908358342
            ],
            [
              -92.08032377204336,
              19.691686908358342
            ]
          ]
        ]
      }
    }
  ]
}